NORAD_CAT_ID,OBJECT_NAME,OBJECT_TYPE,EPOCH,MEAN_MOTION,ECCENTRICITY,INCLINATION,RA_OF_ASC_NODE,ARG_OF_PERICENTER,MEAN_ANOMALY,BSTAR,MEAN_MOTION_DOT,MEAN_MOTION_DDOT,TLE_LINE0,TLE_LINE1,TLE_LINE2,SEMIMAJOR_AXIS,PERIOD,APOGEE,PERIGEE,DECAYED
54166.0,STARLINK-5280,PAYLOAD,2023-08-18 00:40:35,15.08836092,0.0001296,53.2155,240.1099,89.0459,271.0682,3.6446e-05,2.92e-06,0.0,0 STARLINK-5280,1 54166U 22141K   23230.02819241  .00000292  00000-0  36446-4 0  9999,2 54166  53.2155 240.1099 0001296  89.0459 271.0682 15.08836092 44751,6917.892,95.438,540.654,538.861,0.0
54166.0,STARLINK-5280,PAYLOAD,2023-08-19 06:52:54,15.08845339,0.0001319,53.2157,234.46,87.5324,272.5819,8.3457e-05,1.041e-05,0.0,0 STARLINK-5280,1 54166U 22141K   23231.28674533  .00001041  00000-0  83457-4 0  9998,2 54166  53.2157 234.4600 0001319  87.5324 272.5819 15.08845339 44940,6917.864,95.437,540.642,538.817,0.0
54166.0,STARLINK-5280,PAYLOAD,2023-08-20 03:32:56,15.08831849,0.000138,53.2162,230.594,88.0165,272.0985,2.0086e-05,3.2e-07,0.0,0 STARLINK-5280,1 54166U 22141K   23232.14787638  .00000032  00000-0  20086-4 0  9993,2 54166  53.2162 230.5940 0001380  88.0165 272.0985 15.08831849 45072,6917.905,95.438,540.725,538.816,0.0
54166.0,STARLINK-5280,PAYLOAD,2023-08-21 00:12:56,15.0883885,0.0001394,53.2164,226.728,87.8305,272.2846,4.2051e-05,3.81e-06,0.0,0 STARLINK-5280,1 54166U 22141K   23233.00899256  .00000381  00000-0  42051-4 0  9992,2 54166  53.2164 226.7280 0001394  87.8305 272.2846 15.08838850 45208,6917.884,95.438,540.713,538.785,0.0
54166.0,STARLINK-5280,PAYLOAD,2023-08-21 11:20:38,15.08846032,0.0001395,53.2162,224.647,87.7697,272.3455,4.7359e-05,4.66e-06,0.0,0 STARLINK-5280,1 54166U 22141K   23233.47266693  .00000466  00000-0  47359-4 0  9996,2 54166  53.2162 224.6470 0001395  87.7697 272.3455 15.08846032 45273,6917.862,95.437,540.692,538.762,0.0
54166.0,STARLINK-5280,PAYLOAD,2023-08-22 00:03:44,15.0882953,0.0001431,53.2148,222.2687,95.2521,264.8635,2.5019e-05,1.1e-06,0.0,0 STARLINK-5280,1 54166U 22141K   23234.00259916  .00000110  00000-0  25019-4 0  9991,2 54166  53.2148 222.2687 0001431  95.2521 264.8635 15.08829530 45351,6917.912,95.438,540.767,538.787,0.0
54166.0,STARLINK-5280,PAYLOAD,2023-08-22 09:36:03,15.08835604,0.0001366,53.2159,220.4864,97.636,262.4787,4.3013e-05,3.97e-06,0.0,0 STARLINK-5280,1 54166U 22141K   23234.40003671  .00000397  00000-0  43013-4 0  9991,2 54166  53.2159 220.4864 0001366  97.6360 262.4787 15.08835604 45412,6917.894,95.438,540.704,538.814,0.0
54166.0,STARLINK-5280,PAYLOAD,2023-08-23 11:02:13,15.08840678,0.0001466,53.2163,215.7253,95.8897,264.2262,4.2148e-05,3.83e-06,0.0,0 STARLINK-5280,1 54166U 22141K   23235.45987619  .00000383  00000-0  42148-4 0  9993,2 54166  53.2163 215.7253 0001466  95.8897 264.2262 15.08840678 45574,6917.878,95.438,540.757,538.729,0.0
54166.0,STARLINK-5280,PAYLOAD,2023-08-24 07:42:14,15.08840033,0.0001514,53.2164,211.8603,90.4928,269.6238,9.6036e-05,1.241e-05,0.0,0 STARLINK-5280,1 54166U 22141K   23236.32099766  .00001241  00000-0  96036-4 0  9996,2 54166  53.2164 211.8603 0001514  90.4928 269.6238 15.08840033 45703,6917.88,95.438,540.793,538.698,0.0
54166.0,STARLINK-5280,PAYLOAD,2023-08-25 02:46:51,15.08842223,0.0001532,53.2162,208.2922,88.0831,272.0336,5.5723e-05,5.99e-06,0.0,0 STARLINK-5280,1 54166U 22141K   23237.11587823  .00000599  00000-0  55723-4 0  9993,2 54166  53.2162 208.2922 0001532  88.0831 272.0336 15.08842223 45824,6917.874,95.437,540.798,538.679,0.0
54166.0,STARLINK-5280,PAYLOAD,2023-08-25 04:22:14,15.08842773,0.0001544,53.2164,207.9951,86.6817,273.4351,5.8068e-05,6.36e-06,0.0,0 STARLINK-5280,1 54166U 22141K   23237.18211778  .00000636  00000-0  58068-4 0  9990,2 54166  53.2164 207.9951 0001544  86.6817 273.4351 15.08842773 45838,6917.872,95.437,540.805,538.669,0.0
54166.0,STARLINK-5280,PAYLOAD,2023-08-25 21:51:29,15.0883848,0.0001545,53.2163,204.7248,83.9405,276.1763,5.9729e-05,6.63e-06,0.0,0 STARLINK-5280,1 54166U 22141K   23237.91076049  .00000663  00000-0  59729-4 0  9996,2 54166  53.2163 204.7248 0001545  83.9405 276.1763 15.08838480 45944,6917.885,95.438,540.819,538.681,0.0
54166.0,STARLINK-5280,PAYLOAD,2023-08-26 07:23:48,15.08842897,0.000148,53.2164,202.94,88.0512,272.0649,3.2355e-05,2.27e-06,0.0,0 STARLINK-5280,1 54166U 22141K   23238.30819825  .00000227  00000-0  32355-4 0  9999,2 54166  53.2164 202.9400 0001480  88.0512 272.0649 15.08842897 46001,6917.872,95.437,540.76,538.713,0.0
54166.0,STARLINK-5280,PAYLOAD,2023-08-26 21:42:16,15.08839897,0.0001516,53.2164,200.2636,87.8676,272.2489,3.5805e-05,2.82e-06,0.0,0 STARLINK-5280,1 54166U 22141K   23238.90435930  .00000282  00000-0  35805-4 0  9990,2 54166  53.2164 200.2636 0001516  87.8676 272.2489 15.08839897 46090,6917.881,95.438,540.794,538.697,0.0
54166.0,STARLINK-5280,PAYLOAD,2023-08-27 07:14:34,15.08847495,0.0001569,53.2172,198.48,93.201,266.9161,9.226e-05,1.181e-05,0.0,0 STARLINK-5280,1 54166U 22141K   23239.30179209  .00001181  00000-0  92260-4 0  9996,2 54166  53.2172 198.4800 0001569  93.2010 266.9161 15.08847495 46158,6917.857,95.437,540.808,538.637,0.0
54166.0,STARLINK-5280,PAYLOAD,2023-08-27 21:33:04,15.08834164,0.0001618,53.2168,195.8038,89.2318,270.886,1.4058e-05,-6.4e-07,0.0,0 STARLINK-5280,1 54166U 22141K   23239.89796372 -.00000064  00000-0  14058-4 0  9995,2 54166  53.2168 195.8038 0001618  89.2318 270.8860 15.08834164 46247,6917.898,95.438,540.883,538.644,0.0
54166.0,STARLINK-5280,PAYLOAD,2023-08-28 03:54:36,15.08837511,0.0001422,53.2167,194.614,94.1795,265.936,3.6412e-05,2.92e-06,0.0,0 STARLINK-5280,1 54166U 22141K   23240.16292115  .00000292  00000-0  36412-4 0  9993,2 54166  53.2167 194.6140 0001422  94.1795 265.9360 15.08837511 46287,6917.888,95.438,540.737,538.769,0.0
54166.0,STARLINK-5280,PAYLOAD,2023-08-28 19:48:28,15.08836405,0.0001457,53.2167,191.6397,95.7624,264.3534,-2.3414e-05,-6.61e-06,0.0,0 STARLINK-5280,1 54166U 22141K   23240.82532539 -.00000661  00000-0 -23414-4 0  9993,2 54166  53.2167 191.6397 0001457  95.7624 264.3534 15.08836405 46382,6917.891,95.438,540.764,538.748,0.0
54166.0,STARLINK-5280,PAYLOAD,2023-08-29 05:20:46,15.08840523,0.0001386,53.2169,189.857,94.2969,265.8181,2.7337e-05,1.47e-06,0.0,0 STARLINK-5280,1 54166U 22141K   23241.22276198  .00000147  00000-0  27337-4 0  9999,2 54166  53.2169 189.8570 0001386  94.2969 265.8181 15.08840523 46440,6917.879,95.438,540.703,538.785,0.0
54166.0,STARLINK-5280,PAYLOAD,2023-08-29 13:17:42,15.08835977,0.0001338,53.2167,188.3696,95.7852,264.3293,-2.743e-05,-7.24e-06,0.0,0 STARLINK-5280,1 54166U 22141K   23241.55396674 -.00000724  00000-0 -27430-4 0  9994,2 54166  53.2167 188.3696 0001338  95.7852 264.3293 15.08835977 46495,6917.893,95.438,540.683,538.832,0.0
54166.0,STARLINK-5280,PAYLOAD,2023-08-30 00:25:24,15.08833112,0.0001212,53.2163,186.2885,102.8464,257.2663,4.5812e-05,4.41e-06,0.0,0 STARLINK-5280,1 54166U 22141K   23242.01764846  .00000441  00000-0  45812-4 0  9994,2 54166  53.2163 186.2885 0001212 102.8464 257.2663 15.08833112 46567,6917.901,95.438,540.605,538.928,0.0
54166.0,STARLINK-5280,PAYLOAD,2023-08-30 06:46:56,15.08840592,0.000119,53.217,185.0987,93.298,266.8148,0.00010463,1.378e-05,0.0,0 STARLINK-5280,1 54166U 22141K   23242.28260275  .00001378  00000-0  10463-3 0  9993,2 54166  53.2170 185.0987 0001190  93.2980 266.8148 15.08840592 46605,6917.879,95.438,540.567,538.92,0.0
54166.0,STARLINK-5280,PAYLOAD,2023-08-30 13:08:29,15.08837883,0.0001265,53.2169,183.9086,96.4763,263.6374,2.1981e-05,6.2e-07,0.0,0 STARLINK-5280,1 54166U 22141K   23242.54756657  .00000062  00000-0  21981-4 0  9993,2 54166  53.2169 183.9086 0001265  96.4763 263.6374 15.08837883 46646,6917.887,95.438,540.627,538.877,0.0
54166.0,STARLINK-5280,PAYLOAD,2023-08-31 00:16:12,15.08833792,0.0001303,53.2171,181.8282,96.9599,263.1541,3.5485e-05,2.77e-06,0.0,0 STARLINK-5280,1 54166U 22141K   23243.01125076  .00000277  00000-0  35485-4 0  9993,2 54166  53.2171 181.8282 0001303  96.9599 263.1541 15.08833792 46713,6917.899,95.438,540.666,538.863,0.0
54166.0,STARLINK-5280,PAYLOAD,2023-09-01 01:42:22,15.08839033,0.000129,53.2176,177.0695,96.1029,264.0111,3.4807e-05,2.66e-06,0.0,0 STARLINK-5280,1 54166U 22141K   23244.07108905  .00000266  00000-0  34807-4 0  9997,2 54166  53.2176 177.0695 0001290  96.1029 264.0111 15.08839033 46872,6917.883,95.438,540.641,538.856,0.0
54166.0,STARLINK-5280,PAYLOAD,2023-09-01 12:50:03,15.08844868,0.000109,53.217,174.9892,85.3759,274.7358,3.8664e-05,3.28e-06,0.0,0 STARLINK-5280,1 54166U 22141K   23244.53476606  .00000328  00000-0  38664-4 0  9998,2 54166  53.2170 174.9892 0001090  85.3759 274.7358 15.08844868 46940,6917.866,95.437,540.485,538.976,0.0
54166.0,STARLINK-5280,PAYLOAD,2023-09-01 19:11:36,15.08840583,0.0001143,53.2164,173.7987,89.6709,270.4414,5.8875e-05,6.49e-06,0.0,0 STARLINK-5280,1 54166U 22141K   23244.79972810  .00000649  00000-0  58875-4 0  9996,2 54166  53.2164 173.7987 0001143  89.6709 270.4414 15.08840583 46986,6917.879,95.438,540.534,538.953,0.0
54166.0,STARLINK-5280,PAYLOAD,2023-09-03 01:23:55,15.08839982,0.0001083,53.2146,168.146,97.9949,262.1166,0.00010316,1.354e-05,0.0,0 STARLINK-5280,1 54166U 22141K   23246.05828596  .00001354  00000-0  10316-3 0  9999,2 54166  53.2146 168.1460 0001083  97.9949 262.1166 15.08839982 47176,6917.88,95.438,540.495,538.996,0.0
54166.0,STARLINK-5280,PAYLOAD,2023-09-03 04:34:41,15.0884358,0.0001313,53.2149,167.5503,101.9296,258.1844,0.00013018,1.785e-05,0.0,0 STARLINK-5280,1 54166U 22141K   23246.19076355  .00001785  00000-0  13018-3 0  9992,2 54166  53.2149 167.5503 0001313 101.9296 258.1844 15.08843580 47196,6917.869,95.437,540.643,538.826,0.0
54166.0,STARLINK-5280,PAYLOAD,2023-09-04 01:14:43,15.0883287,0.0001177,53.215,163.6854,91.1534,268.9593,1.005e-05,-1.28e-06,0.0,0 STARLINK-5280,1 54166U 22141K   23247.05189674 -.00000128  00000-0  10050-4 0  9992,2 54166  53.2150 163.6854 0001177  91.1534 268.9593 15.08832870 47322,6917.902,95.438,540.581,538.953,0.0
